1 27424U 02022A   12073.64483118 +.00000731 +00000-0 +17214-3 0 02412
2 27424 098.2269 015.5442 0001335 077.8788 282.2522 14.57134672524458